NORAD_CAT_ID,OBJECT_NAME,OBJECT_TYPE,EPOCH,MEAN_MOTION,ECCENTRICITY,INCLINATION,RA_OF_ASC_NODE,ARG_OF_PERICENTER,MEAN_ANOMALY,BSTAR,MEAN_MOTION_DOT,MEAN_MOTION_DDOT,TLE_LINE0,TLE_LINE1,TLE_LINE2,SEMIMAJOR_AXIS,PERIOD,APOGEE,PERIGEE,DECAYED
53291.0,STARLINK-4166,PAYLOAD,2022-07-28 20:00:01,15.90078568,0.0041021999999999,53.2176,22.4125,54.9988,341.6561,-0.0039743,-0.01318623,0.00049656,0 STARLINK-4166,1 53291U 22086BB  22209.83334491 -.01318623  49656-3 -39743-2 0  9995,2 53291  53.2176  22.4125 0041022  54.9988 341.6561 15.90078568  1303,6680.2,90.562,329.468,274.661,0.0
53291.0,STARLINK-4166,PAYLOAD,2022-07-29 06:00:00,15.89016088,0.0036058,53.2177,20.2983,55.1744,207.1717,-0.0045243,-0.01395036,0.0005447999999999,0 STARLINK-4166,1 53291U 22086BB  22210.25001157 -.01395036  54480-3 -45243-2 0  9999,2 53291  53.2177  20.2983 0036058  55.1744 207.1717 15.89016088  1360,6683.177,90.622,329.14,280.944,0.0
53291.0,STARLINK-4166,PAYLOAD,2022-07-29 14:00:01,15.88112142,0.0032503,53.2177,18.6113,55.3831,314.3449,-0.0046061999999999,-0.01342216,0.00050353,0 STARLINK-4166,1 53291U 22086BB  22210.58334491 -.01342216  50353-3 -46062-2 0  9992,2 53291  53.2177  18.6113 0032503  55.3831 314.3449 15.88112142  1412,6685.7130000000025,90.674,329.309,285.847,0.0
53291.0,STARLINK-4166,PAYLOAD,2022-07-29 22:00:00,15.87216977,0.0029939,53.2173,16.9279,56.3035,59.7466,-0.0047278999999999,-0.01308188,0.00047657,0 STARLINK-4166,1 53291U 22086BB  22210.91667824 -.01308188  47657-3 -47279-2 0  9992,2 53291  53.2173  16.9279 0029939  56.3035  59.7466 15.87216977  1473,6688.227,90.725,330.115,290.068,0.0
53291.0,STARLINK-4166,PAYLOAD,2022-07-30 06:00:00,15.86373475,0.0026628,53.2175,15.2427,56.2279,165.0727,-0.0052518999999999,-0.01381597,0.00052243,0 STARLINK-4166,1 53291U 22086BB  22211.25001157 -.01381597  52243-3 -52519-2 0  9996,2 53291  53.2175  15.2427 0026628  56.2279 165.0727 15.86373475  1526,6690.597,90.773,330.278,294.646,0.0
53291.0,STARLINK-4166,PAYLOAD,2022-07-30 14:00:01,15.85491813,0.0023462,53.2177,13.5624,56.0471,269.4596,-0.0054981,-0.01376052,0.00051452,0 STARLINK-4166,1 53291U 22086BB  22211.58334491 -.01376052  51452-3 -54981-2 0  9998,2 53291  53.2177  13.5624 0023462  56.0471 269.4596 15.85491813  1308,6693.0769999999975,90.824,330.646,299.2390000000001,0.0
53291.0,STARLINK-4166,PAYLOAD,2022-07-30 20:00:01,15.84836773,0.0020701,53.2177,12.3047,57.0071,255.9581,-0.0057386,-0.01219663,0.0,0 STARLINK-4166,1 53291U 22086BB  22211.83334491 -.01219663  00000-0 -57386-2 0  9992,2 53291  53.2177  12.3047 0020701  57.0071 255.9581 15.84836773  1619,6694.920999999999,90.861,330.646,302.927,0.0
53291.0,STARLINK-4166,PAYLOAD,2022-07-30 22:00:00,15.84582811,0.0019892,53.2174,11.8851,56.0797,12.5855,-0.0055108999999999,-0.01162426,0.0,0 STARLINK-4166,1 53291U 22086BB  22211.91667824 -.01162426  00000-0 -55109-2 0  9995,2 53291  53.2174  11.8851 0019892  56.0797  12.5855 15.84582811  1304,6695.637,90.876,330.821,304.183,0.0
53291.0,STARLINK-4166,PAYLOAD,2022-07-31 06:00:02,15.83721013,0.0017303,53.2174,10.2065,56.3303,114.4894,-0.0059237,-0.01188423,0.0,0 STARLINK-4166,1 53291U 22086BB  22212.25002315 -.01188423  00000-0 -59237-2 0  9992,2 53291  53.2174  10.2065 0017303  56.3303 114.4894 15.83721013  1689,6698.065,90.925,331.52,308.341,0.0
53291.0,STARLINK-4166,PAYLOAD,2022-07-31 14:00:01,15.8286424,0.0013626,53.2174,8.5332,53.00899999999999,218.7737,-0.0064141,-0.01245993,0.0,0 STARLINK-4166,1 53291U 22086BB  22212.58334491 -.01245993  00000-0 -64141-2 0  9997,2 53291  53.2174   8.5332 0013626  53.0090 218.7737 15.82864240  1309,6700.482,90.974,331.477,313.217,0.0
53291.0,STARLINK-4166,PAYLOAD,2022-07-31 20:00:01,15.82204062,0.0011834,53.2175,7.2803,54.5041,202.3628,-0.0066153,-0.01242598,0.0,0 STARLINK-4166,1 53291U 22086BB  22212.83334491 -.01242598  00000-0 -66153-2 0  9998,2 53291  53.2175   7.2803 0011834  54.5041 202.3628 15.82204062  1779,6702.346,91.012,332.14300000000014,316.279,0.0
53291.0,STARLINK-4166,PAYLOAD,2022-07-31 22:00:00,15.81962813,0.0010895999999999,53.2171,6.8623,52.2963,319.4743,-0.0064766999999999,-0.01205731,0.0,0 STARLINK-4166,1 53291U 22086BB  22212.91667824 -.01205731  00000-0 -64767-2 0  9993,2 53291  53.2171   6.8623 0010896  52.2963 319.4743 15.81962813  1306,6703.026999999999,91.026,332.196,317.589,0.0
53291.0,STARLINK-4166,PAYLOAD,2022-08-01 14:00:01,15.80215979,0.0004973,53.2178,3.5233,30.5648,177.9963,-0.0071605,-0.01219429,0.0,0 STARLINK-4166,1 53291U 22086BB  22213.58334491 -.01219429  00000-0 -71605-2 0  9996,2 53291  53.2178   3.5233 0004973  30.5648 177.9963 15.80215979  1890,6707.965999999999,91.127,333.167,326.495,0.0
53291.0,STARLINK-4166,PAYLOAD,2022-08-01 22:00:00,15.79338079,0.0003446,53.2172,1.8587,17.5062,287.8665,-0.0074628999999999,-0.01219179,0.0,0 STARLINK-4166,1 53291U 22086BB  22213.91667824 -.01219179  00000-0 -74629-2 0  9993,2 53291  53.2172   1.8587 0003446  17.5062 287.8665 15.79338079  1307,6710.4519999999975,91.177,334.629,330.005,0.0
53291.0,STARLINK-4166,PAYLOAD,2022-08-02 06:00:02,15.78450551,0.0003311,53.2173,0.193,3.4636,37.7364,-0.0076796999999999,-0.01206224,0.0,0 STARLINK-4166,1 53291U 22086BB  22214.25002315 -.01206224  00000-0 -76797-2 0  9994,2 53291  53.2173   0.1930 0003311   3.4636  37.7364 15.78450551  2009,6712.967,91.229,337.055,332.6090000000001,0.0
53291.0,STARLINK-4166,PAYLOAD,2022-08-02 14:00:01,15.77572142,0.0003437,53.2173,358.5329,6.6087,129.2248,-0.0079873,-0.01205721,0.0,0 STARLINK-4166,1 53291U 22086BB  22214.58334491 -.01205721  00000-0 -79873-2 0  9992,2 53291  53.2173 358.5329 0003437   6.6087 129.2248 15.77572142  2058,6715.459,91.28,339.63199999999995,335.016,0.0
53291.0,STARLINK-4166,PAYLOAD,2022-08-03 06:00:00,15.7580986,0.0003567,53.2174,355.2155,341.2295,340.8394,-0.0085768999999999,-0.01197643,0.0,0 STARLINK-4166,1 53291U 22086BB  22215.25001157 -.01197643  00000-0 -85769-2 0  9991,2 53291  53.2174 355.2155 0003567 341.2295 340.8394 15.75809860  2155,6720.465,91.382,344.727,339.932,0.0
53291.0,STARLINK-4166,PAYLOAD,2022-08-03 14:00:01,15.74947459,0.0003996,53.2177,353.5621,331.6179,81.9764,-0.0091249,-0.01223475,0.0,0 STARLINK-4166,1 53291U 22086BB  22215.58334491 -.01223475  00000-0 -91249-2 0  9990,2 53291  53.2177 353.5621 0003996 331.6179  81.9764 15.74947459  1303,6722.918000000002,91.432,347.469,342.096,0.0
53291.0,STARLINK-4166,PAYLOAD,2022-08-03 22:00:01,15.73920381,4.52e-05,53.2172,351.9099,111.0661,33.0946,-0.0058963,-0.00779129,0.0,0 STARLINK-4166,1 53291U 22086BB  22215.91668981 -.00779129  00000-0 -58963-2 0  9998,2 53291  53.2172 351.9099 0000452 111.0661  33.0946 15.73920381  1303,6725.842,91.491,348.011,347.403,0.0
53291.0,STARLINK-4166,PAYLOAD,2022-08-04 06:00:00,15.73224114,0.0001229,53.2172,350.2573,61.073,172.4931,-0.00023812,-0.00033938,0.0,0 STARLINK-4166,1 53291U 22086BB  22216.25001157 -.00033938  00000-0 -23812-3 0  9999,2 53291  53.2172 350.2573 0001229  61.0730 172.4931 15.73224114  2311,6727.826,91.532,350.51800000000014,348.865,0.0
53291.0,STARLINK-4166,PAYLOAD,2022-08-04 14:00:01,15.73203838,0.0001333,53.2173,348.6093,53.6461,268.8619,7.6352e-06,4.52e-06,0.0,0 STARLINK-4166,1 53291U 22086BB  22216.58334491  .00000452  00000-0  76352-5 0  9997,2 53291  53.2173 348.6093 0001333  53.6461 268.8619 15.73203838  1305,6727.884,91.533,350.646,348.852,0.0
53291.0,STARLINK-4166,PAYLOAD,2022-08-04 20:00:01,15.73169334,0.0001351,53.2201,347.3778,58.6153,240.3866,0.00055765,0.00078271,0.0,0 STARLINK-4166,1 53291U 22086BB  22216.83334491  .00078271  00000-0  55765-3 0  9992,2 53291  53.2201 347.3778 0001351  58.6153 240.3866 15.73169334  2409,6727.983,91.535,350.75699999999995,348.939,0.0
53291.0,STARLINK-4166,PAYLOAD,2022-08-04 22:00:00,15.73200898,0.0001349,53.2199,346.965,58.7321,352.4905,0.00021471,0.0002962,0.0,0 STARLINK-4166,1 53291U 22086BB  22216.91667824  .00029620  00000-0  21471-3 0  9991,2 53291  53.2199 346.9650 0001349  58.7321 352.4905 15.73200898  1302,6727.893,91.533,350.665,348.85,0.0
53291.0,STARLINK-4166,PAYLOAD,2022-08-05 04:00:00,15.73193886,0.0001247,53.2203,345.7264,67.5213,320.4098,0.00042738,0.00059772,0.0,0 STARLINK-4166,1 53291U 22086BB  22217.16667824  .00059772  00000-0  42738-3 0  9999,2 53291  53.2203 345.7264 0001247  67.5213 320.4098 15.73193886  2465,6727.913000000001,91.534,350.617,348.939,0.0
53291.0,STARLINK-4166,PAYLOAD,2022-08-05 14:00:01,15.73247489,0.0001421,53.22,343.6659,61.077,168.11,5.2895e-05,6.824e-05,0.0,0 STARLINK-4166,1 53291U 22086BB  22217.58335648  .00006824  00000-0  52895-4 0  9997,2 53291  53.2200 343.6659 0001421  61.0770 168.1100 15.73247489  1300,6727.76,91.53,350.581,348.6690000000001,0.0
53291.0,STARLINK-4166,PAYLOAD,2022-08-05 22:00:00,15.73303994,0.0001319,53.2194,342.0164,52.6834,265.4361,-0.00037018,-0.0005248,0.0,0 STARLINK-4166,1 53291U 22086BB  22217.91667824 -.00052480  00000-0 -37018-3 0  9998,2 53291  53.2194 342.0164 0001319  52.6834 265.4361 15.73303994  1303,6727.599,91.527,350.351,348.576,0.0
53291.0,STARLINK-4166,PAYLOAD,2022-08-06 06:00:00,15.73210286,0.0001022,53.2195,340.3649,61.7625,345.3996,0.00038484,0.00053759,0.0,0 STARLINK-4166,1 53291U 22086BB  22218.25001157  .00053759  00000-0  38484-3 0  9993,2 53291  53.2195 340.3649 0001022  61.7625 345.3996 15.73210286  2633,6727.866,91.533,350.418,349.043,0.0
53291.0,STARLINK-4166,PAYLOAD,2022-08-06 11:53:58,15.73275558,0.0001155999999999,53.2201,339.1485,51.7869,308.3255,0.00011917,0.0001619,0.0,0 STARLINK-4166,1 53291U 22086BB  22218.49581506  .00016190  00000-0  11917-3 0  9990,2 53291  53.2201 339.1485 0001156  51.7869 308.3255 15.73275558  2834,6727.68,91.529,350.32199999999995,348.767,0.0
53291.0,STARLINK-4166,PAYLOAD,2022-08-06 14:00:01,15.73244787,0.0001051,53.2195,338.7171,44.8645,91.2652,-0.00050954,-0.00071658,0.0,0 STARLINK-4166,1 53291U 22086BB  22218.58334491 -.00071658  00000-0 -50954-3 0  9995,2 53291  53.2195 338.7171 0001051  44.8645  91.2652 15.73244787  2684,6727.767,91.531,350.34,348.925,0.0
